YAOGAN-36 01A           
1 53943U 22120A   26068.76225898  .00012015  00000+0  51239-3 0  9991
2 53943  34.9902 190.0789 0005211 178.8422 181.2305 15.22125163192143
STARLINK-30842          
1 58357U 23177G   26068.06814281  .00014531  00000+0  59008-3 0  9998
2 58357  42.9998 339.3436 0001353 241.6779 118.3935 15.24412214128300
